satname,norad_id,inclination_deg,eccentricity,mean_motion_rev_per_day,perigee_km,apogee_km,l1,l2
STARLINK-1361,45567,53.0548,0.0001106,15.06374319,546.5243153669353,548.0562198785328,1 45567U 20025AN  25293.56738218 -.00001570  00000+0 -86613-4 0  9999,2 45567  53.0548 355.6484 0001106  87.2649 272.8467 15.06374319304252
STARLINK-1363,45568,53.0544,0.0001501,15.23049163,495.6177683979704,497.68157935746785,1 45568U 20025AP  25293.66671296  .01711796  00000+0  65682-1 0  9990,2 45568  53.0544 354.9073 0001501  77.8404 300.5977 15.23049163  5515
STARLINK-1366,45569,53.0549,9.62e-05,15.26195643,486.5370467723078,487.85793712855957,1 45569U 20025AQ  25293.66671296  .01776491  00000+0  61867-1 0  9995,2 45569  53.0549 354.4694 0000962  76.8422 101.9283 15.26195643  5807
STARLINK-1376,45570,53.0572,0.0001578,15.06375692,546.1932277003298,548.3788912178943,1 45570U 20025AR  25293.43101389 -.00002334  00000+0 -13792-3 0  9998,2 45570  53.0572 356.2661 0001578  91.6660 268.4510 15.06375692304224
STARLINK-1320,45572,53.0588,0.000859,15.4035698,439.1938026274702,450.9160463537446,1 45572U 20025AT  25293.50390611  .00025138  00000+0  62048-3 0  9999,2 45572  53.0588 302.0100 0008590 324.9813  35.0625 15.40356980305013
STARLINK-1321,45573,53.056,0.0001263,15.06379636,546.3992919627444,548.1486507741129,1 45573U 20025AU  25293.54988060 -.00002271  00000+0 -13369-3 0  9992,2 45573  53.0560 345.7302 0001263  83.0698 277.0435 15.06379636304084
STARLINK-1328,45576,53.052,0.0009894,15.64016789,369.38533080343313,382.75055154102483,1 45576U 20025AX  25293.66671296  .00160583  00000+0  16385-2 0  9997,2 45576  53.0520 326.1282 0009894 352.8911 338.5783 15.64016789  5589
STARLINK-1331,45578,53.0553,0.000173,15.06374961,546.0902013531022,548.4863985068778,1 45578U 20025AZ  25293.46140780 -.00005532  00000+0 -35303-3 0  9992,2 45578  53.0553 346.1290 0001730  99.9392 260.1792 15.06374961304386
STARLINK-1333,45580,53.0541,0.0001302,15.06370177,546.4012703628332,548.2046549291063,1 45580U 20025BB  25293.40152729 -.00005025  00000+0 -31893-3 0  9992,2 45580  53.0541 356.3959 0001302  91.0878 269.0260 15.06370177304224
STARLINK-1335,45581,53.0555,0.0001364,15.06378607,546.3324986914022,548.2217516647506,1 45581U 20025BC  25293.47246550 -.00007402  00000+0 -47879-3 0  9998,2 45581  53.0555 346.0788 0001364  78.9240 281.1903 15.06378607304372
STARLINK-1337,45582,53.0549,0.0001581,15.06431116,546.0213109914339,548.211076051226,1 45582U 20025BD  25293.42821998  .00037516  00000+0  25220-2 0  9991,2 45582  53.0549 346.2808 0001581 106.7846 253.3317 15.06431116304368
STARLINK-1347,45586,53.0555,0.0005376,15.29459128,473.74252079476446,481.1136243607998,1 45586U 20025BH  25293.54845675  .00067394  00000+0  23185-2 0  9991,2 45586  53.0555 333.1049 0005376 301.6896  58.3578 15.29459128304559
STARLINK-1360,45588,53.0449,0.0006005,15.72707987,347.1203467594769,355.2022340062267,1 45588U 20025BK  25293.66671296  .00148686  00000+0  10663-2 0  9993,2 45588  53.0449 254.6050 0006005  82.3029 317.7854 15.72707987  5939
STARLINK-1364,45589,53.0554,0.0001447,15.06377446,546.2785756235598,548.282791501184,1 45589U 20025BL  25293.36557002 -.00007899  00000+0 -51226-3 0  9992,2 45589  53.0554 346.5629 0001447  94.5902 265.5252 15.06377446304350
STARLINK-1365,45590,53.0525,0.0001539,15.06386766,546.1863011538326,548.3179359245187,1 45590U 20025BM  25293.44758986 -.00001252  00000+0 -65158-4 0  9994,2 45590  53.0525  16.1869 0001539 122.1186 237.9952 15.06386766303961
STARLINK-1443,45660,53.0549,0.000126,15.06377835,546.4068888259981,548.1520937818068,1 45660U 20035D   25293.43284498 -.00000813  00000+0 -35734-4 0  9993,2 45660  53.0549 336.2593 0001260  90.4509 269.6625 15.06377835297599
STARLINK-1446,45663,53.0274,0.0001036,15.32319282,468.1852170943066,469.60392203552146,1 45663U 20035G   25293.30630107  .00078949  00000+0  24804-2 0  9991,2 45663  53.0274 301.8568 0001036 265.5963  94.4918 15.32319282298060
STARLINK-1448,45665,53.0546,0.0001299,15.06379713,546.3741245146866,548.1733462237344,1 45665U 20035J   25293.50287626 -.00005166  00000+0 -32833-3 0  9994,2 45665  53.0546 335.9402 0001299  99.4656 260.6480 15.06379713297597
STARLINK-1451,45668,53.0543,0.0001453,15.06374414,546.2837119134801,548.2962409928368,1 45668U 20035M   25293.50659909 -.00003789  00000+0 -23577-3 0  9998,2 45668  53.0543 336.2431 0001453 106.1491 253.9658 15.06374414297605
STARLINK-1452,45669,53.0389,0.0009549,15.25351615,483.171678371049,496.287930394059,1 45669U 20035N   25293.48998872  .00073138  00000+0  28445-2 0  9992,2 45669  53.0389 318.7926 0009549 336.0701  23.9851 15.25351615297845
STARLINK-1453,45670,53.0536,0.0001379,15.06386375,546.2983055909644,548.2083282403701,1 45670U 20035P   25293.31765415 -.00003480  00000+0 -21495-3 0  9995,2 45670  53.0536 306.7764 0001379 100.4515 259.6629 15.06386375297882
STARLINK-1454,45671,53.0553,0.0001415,15.06373566,546.3126272408817,548.272523810755,1 45671U 20035Q   25293.39598051 -.00003215  00000+0 -19717-3 0  9994,2 45671  53.0553 336.4243 0001415  82.7061 277.4089 15.06373566297575
STARLINK-1456,45673,53.0551,0.0001497,15.06371565,546.2619707632148,548.3354462143352,1 45673U 20035S   25293.54342212 -.00000411  00000+0 -87049-5 0  9999,2 45673  53.0551 335.7628 0001497  79.6510 280.4648 15.06371565297615
STARLINK-1457,45674,53.0551,0.0001359,15.06378072,546.3376009128679,548.2199289177724,1 45674U 20035T   25293.41809832 -.00003155  00000+0 -19313-3 0  9997,2 45674  53.0551 336.3232 0001359 100.3543 259.7599 15.06378072297567
STARLINK-1458,45675,53.0555,0.0001362,15.06374088,546.3477323343905,548.2342189149513,1 45675U 20035U   25293.40703153 -.00008042  00000+0 -52199-3 0  9995,2 45675  53.0555 336.3716 0001362 106.4543 253.6595 15.06374088297551
STARLINK-1460,45676,53.0545,0.0001329,15.06368379,546.3880817409017,548.2288651477438,1 45676U 20035V   25293.51024784 -.00001200  00000+0 -61745-4 0  9991,2 45676  53.0545 335.9087 0001329  89.6100 270.5042 15.06368379297563
STARLINK-1392,45677,53.0573,0.0001685,15.06383308,546.0957871342771,548.4296468389011,1 45677U 20035W   25293.38862032 -.00002557  00000+0 -15291-3 0  9993,2 45677  53.0573 336.4569 0001685  96.4208 263.6973 15.06383308297583
STARLINK-1394,45679,53.0549,0.0001272,15.06381376,546.3877268068081,548.1495500012188,1 45679U 20035Y   25293.38584452 -.00003872  00000+0 -24130-3 0  9995,2 45679  53.0549 326.4680 0001272  96.4447 263.6687 15.06381376297729
STARLINK-1402,45685,53.0529,0.0001395,15.18080107,510.6823084067946,512.6045571475388,1 45685U 20035AE  25293.66671296  .00965985  00000+0  43130-1 0  9995,2 45685  53.0529 319.2594 0001395  73.8089  35.2088 15.18080107  5754
STARLINK-1404,45686,53.0542,0.0001406,15.0637855,546.3035866284454,548.2510131295712,1 45686U 20035AF  25293.41165077 -.00002433  00000+0 -14458-3 0  9999,2 45686  53.0542 326.3548 0001406  88.4722 271.6428 15.06378550297731
STARLINK-1413,45689,53.0544,0.0001446,15.06383228,546.261549345073,548.2643750141369,1 45689U 20035AJ  25293.49642785  .00001692  00000+0  13253-3 0  9992,2 45689  53.0544 325.9694 0001446  91.5242 268.5913 15.06383228297652
STARLINK-1417,45693,53.054,0.0001565,15.06383704,546.17767841571,548.3453281472366,1 45693U 20035AN  25293.36004609 -.00003585  00000+0 -22202-3 0  9999,2 45693  53.0540 326.5865 0001565  97.4352 262.6815 15.06383704297711
STARLINK-1420,45695,53.0536,0.0001426,15.06388143,546.2603382874413,548.2354580603997,1 45695U 20035AQ  25293.36094165 -.00003816  00000+0 -23751-3 0  9994,2 45695  53.0536 306.5696 0001426  84.7152 275.4000 15.06388143298004
STARLINK-1422,45696,53.0545,0.0001508,15.06378805,546.2321659637346,548.32087068086,1 45696U 20035AR  25293.50379557 -.00000892  00000+0 -41007-4 0  9998,2 45696  53.0545 325.9410 0001508 101.9839 258.1319 15.06378805297733
STARLINK-1351,45697,53.0571,0.0001822,15.06384734,545.996539392584,548.5201534568214,1 45697U 20035AS  25293.34714840 -.00002559  00000+0 -15302-3 0  9999,2 45697  53.0571 306.6457 0001822 102.5589 257.5604 15.06384734298007
STARLINK-1398,45699,53.0505,0.0002238,15.48141558,420.64093185728325,423.6847460652025,1 45699U 20035AU  25293.66671296  .00118779  00000+0  21991-2 0  9993,2 45699  53.0505 268.1977 0002238  44.0702 242.5546 15.48141558  5910
STARLINK-1400,45700,53.0561,0.0001562,15.06381511,546.1864763438734,548.349972936051,1 45700U 20035AV  25293.32135740  .00002963  00000+0  21781-3 0  9993,2 45700  53.0561 306.7592 0001562  88.7483 271.3685 15.06381511297991
STARLINK-1403,45701,53.0537,0.0001483,15.06381939,546.2398754548058,548.293950255359,1 45701U 20035AW  25293.35083619 -.00002437  00000+0 -14485-3 0  9995,2 45701  53.0537 306.6278 0001483  94.6233 265.4925 15.06381939297991
STARLINK-1407,45703,53.0417,0.0011321,15.38992225,441.35902915204497,456.8172322930259,1 45703U 20035AY  25293.33336806  .00157601  00000+0  39422-2 0  9993,2 45703  53.0417 267.9950 0011321  10.2835  26.2330 15.38992225  5889
STARLINK-1411,45706,53.0534,0.0001734,15.37745541,451.5931390405858,453.9621002306758,1 45706U 20035BB  25293.66671296  .00158675  00000+0  41400-2 0  9998,2 45706  53.0534 293.4606 0001734  74.4650   1.8582 15.37745541  5860
STARLINK-1423,45710,53.0554,0.0001591,15.06394378,546.1269629151811,548.3306143091186,1 45710U 20035BF  25293.31027923 -.00005890  00000+0 -37688-3 0  9993,2 45710  53.0554 306.8078 0001591 114.6776 245.4379 15.06394378297997
STARLINK-1433,45711,53.0535,0.0001226,15.06383512,546.4130378158452,548.1111456731414,1 45711U 20035BG  25293.35820109 -.00001217  00000+0 -62886-4 0  9993,2 45711  53.0535 306.5880 0001226  97.1838 262.9290 15.06383512297998
STARLINK-1434,45712,53.0517,0.0003621,15.14336916,520.4934619010155,525.4912597841385,1 45712U 20035BH  25293.31835070  .00059098  00000+0  31770-2 0  9997,2 45712  53.0517 303.6001 0003621  18.4923 341.6201 15.14336916298043
